STARLINK-36818          
1 67879U 26035A   26081.27697731  .00313052  00000+0  20317-2 0  9990
2 67879  97.2861  14.2768 0001961  63.8302 296.3164 15.75098761  5824
STARLINK-36821          
1 67880U 26035B   26080.76588852  .00154694  00000+0  10164-2 0  9992
2 67880  97.2842  13.7472 0002085 113.8424 246.3060 15.75255668  5742
STARLINK-36808          
1 67881U 26035C   26081.05776996  .00377317  00000+0  18740-2 0  9991
2 67881  97.2882  14.1134 0003470 122.7983 237.3620 15.80961745  5798
STARLINK-36817          
1 67882U 26035D   26081.16668981  .00093155  00000+0  62016-3 0  9999
2 67882  97.2849  14.2128 0001447  79.6348 139.6239 15.75132723  5760
STARLINK-36856          
1 67883U 26035E   26081.16668981  .00173028  00000+0  11428-2 0  9998
2 67883  97.2855  14.2066 0001453 106.2106  97.0767 15.75084126  5761
STARLINK-36842          
1 67884U 26035F   26080.76306861  .00160102  00000+0  10507-2 0  9996
2 67884  97.2865  13.7492 0001149 133.6732 226.4629 15.75268670  5742
STARLINK-36826          
1 67885U 26035G   26081.26250369  .00378665  00000+0  24347-2 0  9996
2 67885  97.2853  14.2941 0001613  70.8053 289.3387 15.75132431  5822
STARLINK-36390          
1 67886U 26035H   26081.26921112  .00326322  00000+0  21110-2 0  9996
2 67886  97.2854  14.2846 0001596  86.6812 273.4636 15.75136071  5821
STARLINK-36368          
1 67887U 26035J   26081.16668981  .00035169  00000+0  23601-3 0  9992
2 67887  97.2853  14.2329 0001020 111.3446 157.8990 15.75158831  5767
STARLINK-36801          
1 67888U 26035K   26081.16668981  .00156614  00000+0  10344-2 0  9991
2 67888  97.2855  14.2277 0001495  63.9352 191.2990 15.75129157  5767
STARLINK-36372          
1 67889U 26035L   26081.16668981  .00107975  00000+0  71759-3 0  9996
2 67889  97.2862  14.2169 0001508  93.7235 141.5345 15.75127608  5763
STARLINK-36363          
1 67890U 26035M   26081.26566827  .00324576  00000+0  20900-2 0  9994
2 67890  97.2861  14.2894 0001001  86.6039 273.5340 15.75248665  5825
