CCSDS_OMM_VERS = 2.0
CREATION_DATE  = 
ORIGINATOR     = 

OBJECT_NAME    = STARLINK-36818
OBJECT_ID      = 2026-035A
CENTER_NAME    = EARTH
REF_FRAME      = TEME
TIME_SYSTEM    = UTC
MEAN_ELEMENT_THEORY = SGP/SGP4

EPOCH          = 2026-03-22T06:38:50.839584
MEAN_MOTION    = 15.75098761
ECCENTRICITY   = .0001961
INCLINATION    = 97.2861
RA_OF_ASC_NODE = 14.2768
ARG_OF_PERICENTER = 63.8302
MEAN_ANOMALY   = 296.3164

EPHEMERIS_TYPE = 0
CLASSIFICATION_TYPE = U
NORAD_CAT_ID   = 67879
ELEMENT_SET_NO = 999
REV_AT_EPOCH   = 582
BSTAR          = .20316743E-2
MEAN_MOTION_DOT = .313052E-2
MEAN_MOTION_DDOT = 0

CCSDS_OMM_VERS = 2.0
CREATION_DATE  = 
ORIGINATOR     = 

OBJECT_NAME    = STARLINK-36821
OBJECT_ID      = 2026-035B
CENTER_NAME    = EARTH
REF_FRAME      = TEME
TIME_SYSTEM    = UTC
MEAN_ELEMENT_THEORY = SGP/SGP4

EPOCH          = 2026-03-21T18:22:52.768128
MEAN_MOTION    = 15.75255668
ECCENTRICITY   = .00020853
INCLINATION    = 97.2842
RA_OF_ASC_NODE = 13.7472
ARG_OF_PERICENTER = 113.8424
MEAN_ANOMALY   = 246.3060

EPHEMERIS_TYPE = 0
CLASSIFICATION_TYPE = U
NORAD_CAT_ID   = 67880
ELEMENT_SET_NO = 999
REV_AT_EPOCH   = 574
BSTAR          = .10163972E-2
MEAN_MOTION_DOT = .154694E-2
MEAN_MOTION_DDOT = 0

CCSDS_OMM_VERS = 2.0
CREATION_DATE  = 
ORIGINATOR     = 

OBJECT_NAME    = STARLINK-36808
OBJECT_ID      = 2026-035C
CENTER_NAME    = EARTH
REF_FRAME      = TEME
TIME_SYSTEM    = UTC
MEAN_ELEMENT_THEORY = SGP/SGP4

EPOCH          = 2026-03-22T01:23:11.324544
MEAN_MOTION    = 15.80961745
ECCENTRICITY   = .00034709
INCLINATION    = 97.2882
RA_OF_ASC_NODE = 14.1134
ARG_OF_PERICENTER = 122.7983
MEAN_ANOMALY   = 237.3620

EPHEMERIS_TYPE = 0
CLASSIFICATION_TYPE = U
NORAD_CAT_ID   = 67881
ELEMENT_SET_NO = 999
REV_AT_EPOCH   = 579
BSTAR          = .1873995E-2
MEAN_MOTION_DOT = .377317E-2
MEAN_MOTION_DDOT = 0

CCSDS_OMM_VERS = 2.0
CREATION_DATE  = 
ORIGINATOR     = 

OBJECT_NAME    = STARLINK-36817
OBJECT_ID      = 2026-035D
CENTER_NAME    = EARTH
REF_FRAME      = TEME
TIME_SYSTEM    = UTC
MEAN_ELEMENT_THEORY = SGP/SGP4

EPOCH          = 2026-03-22T04:00:01.999584
MEAN_MOTION    = 15.75132723
ECCENTRICITY   = .00014473
INCLINATION    = 97.2849
RA_OF_ASC_NODE = 14.2128
ARG_OF_PERICENTER = 79.6348
MEAN_ANOMALY   = 139.6239

EPHEMERIS_TYPE = 0
CLASSIFICATION_TYPE = U
NORAD_CAT_ID   = 67882
ELEMENT_SET_NO = 999
REV_AT_EPOCH   = 576
BSTAR          = .62015787E-3
MEAN_MOTION_DOT = .93155E-3
MEAN_MOTION_DDOT = 0

CCSDS_OMM_VERS = 2.0
CREATION_DATE  = 
ORIGINATOR     = 

OBJECT_NAME    = STARLINK-36856
OBJECT_ID      = 2026-035E
CENTER_NAME    = EARTH
REF_FRAME      = TEME
TIME_SYSTEM    = UTC
MEAN_ELEMENT_THEORY = SGP/SGP4

EPOCH          = 2026-03-22T04:00:01.999584
MEAN_MOTION    = 15.75084126
ECCENTRICITY   = .00014535
INCLINATION    = 97.2855
RA_OF_ASC_NODE = 14.2066
ARG_OF_PERICENTER = 106.2106
MEAN_ANOMALY   = 97.0767

EPHEMERIS_TYPE = 0
CLASSIFICATION_TYPE = U
NORAD_CAT_ID   = 67883
ELEMENT_SET_NO = 999
REV_AT_EPOCH   = 576
BSTAR          = .11427869E-2
MEAN_MOTION_DOT = .173028E-2
MEAN_MOTION_DDOT = 0

CCSDS_OMM_VERS = 2.0
CREATION_DATE  = 
ORIGINATOR     = 

OBJECT_NAME    = STARLINK-36842
OBJECT_ID      = 2026-035F
CENTER_NAME    = EARTH
REF_FRAME      = TEME
TIME_SYSTEM    = UTC
MEAN_ELEMENT_THEORY = SGP/SGP4

EPOCH          = 2026-03-21T18:18:49.127904
MEAN_MOTION    = 15.75268670
ECCENTRICITY   = .00011496
INCLINATION    = 97.2865
RA_OF_ASC_NODE = 13.7492
ARG_OF_PERICENTER = 133.6732
MEAN_ANOMALY   = 226.4629

EPHEMERIS_TYPE = 0
CLASSIFICATION_TYPE = U
NORAD_CAT_ID   = 67884
ELEMENT_SET_NO = 999
REV_AT_EPOCH   = 574
BSTAR          = .10506893E-2
MEAN_MOTION_DOT = .160102E-2
MEAN_MOTION_DDOT = 0

CCSDS_OMM_VERS = 2.0
CREATION_DATE  = 
ORIGINATOR     = 

OBJECT_NAME    = STARLINK-36826
OBJECT_ID      = 2026-035G
CENTER_NAME    = EARTH
REF_FRAME      = TEME
TIME_SYSTEM    = UTC
MEAN_ELEMENT_THEORY = SGP/SGP4

EPOCH          = 2026-03-22T06:18:00.318816
MEAN_MOTION    = 15.75132431
ECCENTRICITY   = .00016138
INCLINATION    = 97.2853
RA_OF_ASC_NODE = 14.2941
ARG_OF_PERICENTER = 70.8053
MEAN_ANOMALY   = 289.3387

EPHEMERIS_TYPE = 0
CLASSIFICATION_TYPE = U
NORAD_CAT_ID   = 67885
ELEMENT_SET_NO = 999
REV_AT_EPOCH   = 582
BSTAR          = .24347266E-2
MEAN_MOTION_DOT = .378665E-2
MEAN_MOTION_DDOT = 0

CCSDS_OMM_VERS = 2.0
CREATION_DATE  = 
ORIGINATOR     = 

OBJECT_NAME    = STARLINK-36390
OBJECT_ID      = 2026-035H
CENTER_NAME    = EARTH
REF_FRAME      = TEME
TIME_SYSTEM    = UTC
MEAN_ELEMENT_THEORY = SGP/SGP4

EPOCH          = 2026-03-22T06:27:39.840768
MEAN_MOTION    = 15.75136071
ECCENTRICITY   = .00015968
INCLINATION    = 97.2854
RA_OF_ASC_NODE = 14.2846
ARG_OF_PERICENTER = 86.6812
MEAN_ANOMALY   = 273.4636

EPHEMERIS_TYPE = 0
CLASSIFICATION_TYPE = U
NORAD_CAT_ID   = 67886
ELEMENT_SET_NO = 999
REV_AT_EPOCH   = 582
BSTAR          = .21110289E-2
MEAN_MOTION_DOT = .326322E-2
MEAN_MOTION_DDOT = 0

CCSDS_OMM_VERS = 2.0
CREATION_DATE  = 
ORIGINATOR     = 

OBJECT_NAME    = STARLINK-36368
OBJECT_ID      = 2026-035J
CENTER_NAME    = EARTH
REF_FRAME      = TEME
TIME_SYSTEM    = UTC
MEAN_ELEMENT_THEORY = SGP/SGP4

EPOCH          = 2026-03-22T04:00:01.999584
MEAN_MOTION    = 15.75158831
ECCENTRICITY   = .00010206
INCLINATION    = 97.2853
RA_OF_ASC_NODE = 14.2329
ARG_OF_PERICENTER = 111.3446
MEAN_ANOMALY   = 157.8990

EPHEMERIS_TYPE = 0
CLASSIFICATION_TYPE = U
NORAD_CAT_ID   = 67887
ELEMENT_SET_NO = 999
REV_AT_EPOCH   = 576
BSTAR          = .23601071E-3
MEAN_MOTION_DOT = .35169E-3
MEAN_MOTION_DDOT = 0

CCSDS_OMM_VERS = 2.0
CREATION_DATE  = 
ORIGINATOR     = 

OBJECT_NAME    = STARLINK-36801
OBJECT_ID      = 2026-035K
CENTER_NAME    = EARTH
REF_FRAME      = TEME
TIME_SYSTEM    = UTC
MEAN_ELEMENT_THEORY = SGP/SGP4

EPOCH          = 2026-03-22T04:00:01.999584
MEAN_MOTION    = 15.75129157
ECCENTRICITY   = .00014953
INCLINATION    = 97.2855
RA_OF_ASC_NODE = 14.2277
ARG_OF_PERICENTER = 63.9352
MEAN_ANOMALY   = 191.2990

EPHEMERIS_TYPE = 0
CLASSIFICATION_TYPE = U
NORAD_CAT_ID   = 67888
ELEMENT_SET_NO = 999
REV_AT_EPOCH   = 576
BSTAR          = .10344428E-2
MEAN_MOTION_DOT = .156614E-2
MEAN_MOTION_DDOT = 0

CCSDS_OMM_VERS = 2.0
CREATION_DATE  = 
ORIGINATOR     = 

OBJECT_NAME    = STARLINK-36372
OBJECT_ID      = 2026-035L
CENTER_NAME    = EARTH
REF_FRAME      = TEME
TIME_SYSTEM    = UTC
MEAN_ELEMENT_THEORY = SGP/SGP4

EPOCH          = 2026-03-22T04:00:01.999584
MEAN_MOTION    = 15.75127608
ECCENTRICITY   = .00015085
INCLINATION    = 97.2862
RA_OF_ASC_NODE = 14.2169
ARG_OF_PERICENTER = 93.7235
MEAN_ANOMALY   = 141.5345

EPHEMERIS_TYPE = 0
CLASSIFICATION_TYPE = U
NORAD_CAT_ID   = 67889
ELEMENT_SET_NO = 999
REV_AT_EPOCH   = 576
BSTAR          = .71758785E-3
MEAN_MOTION_DOT = .107975E-2
MEAN_MOTION_DDOT = 0

CCSDS_OMM_VERS = 2.0
CREATION_DATE  = 
ORIGINATOR     = 

OBJECT_NAME    = STARLINK-36363
OBJECT_ID      = 2026-035M
CENTER_NAME    = EARTH
REF_FRAME      = TEME
TIME_SYSTEM    = UTC
MEAN_ELEMENT_THEORY = SGP/SGP4

EPOCH          = 2026-03-22T06:22:33.738528
MEAN_MOTION    = 15.75248665
ECCENTRICITY   = .00010019
INCLINATION    = 97.2861
RA_OF_ASC_NODE = 14.2894
ARG_OF_PERICENTER = 86.6039
MEAN_ANOMALY   = 273.5340

EPHEMERIS_TYPE = 0
CLASSIFICATION_TYPE = U
NORAD_CAT_ID   = 67890
ELEMENT_SET_NO = 999
REV_AT_EPOCH   = 582
BSTAR          = .20899572E-2
MEAN_MOTION_DOT = .324576E-2
MEAN_MOTION_DDOT = 0

